{
    "links": {
        "self": "http://www.neowsapp.com/rest/v1/neo/3579457?api_key=iIulBulltgU6a56xZRHN4H3l9WmuAYTsLGpBGhQ2"
    },
    "id": "3579457",
    "neo_reference_id": "3579457",
    "name": "(2011 SU71)",
    "designation": "2011 SU71",
    "nasa_jpl_url": "http://ssd.jpl.nasa.gov/sbdb.cgi?sstr=3579457",
    "absolute_magnitude_h": 24.3,
    "estimated_diameter": {
        "kilometers": {
            "estimated_diameter_min": 0.0366906138,
            "estimated_diameter_max": 0.0820427065
        },
        "meters": {
            "estimated_diameter_min": 36.6906137531,
            "estimated_diameter_max": 82.0427064882
        },
        "miles": {
            "estimated_diameter_min": 0.0227984834,
            "estimated_diameter_max": 0.0509789586
        },
        "feet": {
            "estimated_diameter_min": 120.3760332259,
            "estimated_diameter_max": 269.1689931548
        }
    },
    "is_potentially_hazardous_asteroid": false,
    "close_approach_data": [
        {
            "close_approach_date": "2011-09-12",
            "close_approach_date_full": "2011-Sep-12 16:51",
            "epoch_date_close_approach": 1315846260000,
            "relative_velocity": {
                "kilometers_per_second": "7.5305924924",
                "kilometers_per_hour": "27110.1329727578",
                "miles_per_hour": "16845.1823463228"
            },
            "miss_distance": {
                "astronomical": "0.2287770171",
                "lunar": "88.9942596519",
                "kilometers": "34224554.463113577",
                "miles": "21266152.0188062826"
            },
            "orbiting_body": "Earth"
        }
    ],
    "orbital_data": {
        "orbit_id": "4",
        "orbit_determination_date": "2017-04-06 08:52:40",
        "first_observation_date": "2011-09-20",
        "last_observation_date": "2011-09-26",
        "data_arc_in_days": 6,
        "observations_used": 13,
        "orbit_uncertainty": "8",
        "minimum_orbit_intersection": ".228386",
        "jupiter_tisserand_invariant": "4.544",
        "epoch_osculation": "2455826.5",
        "eccentricity": ".1631489081770742",
        "semi_major_axis": "1.474674942668566",
        "inclination": "14.72852696607942",
        "ascending_node_longitude": "351.0023337904788",
        "orbital_period": "654.0980858139848",
        "perihelion_distance": "1.2340833358561",
        "perihelion_argument": "3.554062904196493",
        "aphelion_distance": "1.715266549481032",
        "perihelion_time": "2455824.357543916311",
        "mean_anomaly": "1.179156776109846",
        "mean_motion": ".5503761711089586",
        "equinox": "J2000",
        "orbit_class": {
            "orbit_class_type": "AMO",
            "orbit_class_description": "Near-Earth asteroid orbits similar to that of 1221 Amor",
            "orbit_class_range": "1.017 AU < q (perihelion) < 1.3 AU"
        }
    },
    "is_sentry_object": false
}